{"name":"Quinsou","address":{"thoroughfare":"33 r. de l'Abbé-Grégoire","postalcode":"75006","locality":"Paris"}}
{"name":"Le Grand Cap","address":{"thoroughfare":"chemin du Phare","postalcode":"11370","locality":"Leucate"}}
{"name":"Sushi B","address":{"thoroughfare":"5 r. Rameau","postalcode":"75002","locality":"Paris"}}
{"name":"Le Skiff Club","address":{"thoroughfare":"1 av. Louis-Gaume","postalcode":"33260","locality":"La Teste-de-Buch"}}
{"name":"La Merise","address":{"thoroughfare":"7 r. d'Eschbach","postalcode":"67580","locality":"Laubach"}}
{"name":"Jean Chauvel","address":{"thoroughfare":"33 av. Général-Leclerc","postalcode":"92100","locality":"Boulogne-Billancourt"}}
{"name":"Haut Bonheur de la Table","address":{"thoroughfare":"18 Grand-Place","postalcode":"59670","locality":"Cassel"}}
{"name":"L'Alchémille","address":{"thoroughfare":"53 rte de Lapoutroie","postalcode":"68240","locality":"Kaysersberg"}}
{"name":"Château de la Treyne","address":{"thoroughfare":"","postalcode":"46200","locality":"Lacave"}}
{"name":"La Table Saint-Crescent","address":{"thoroughfare":"route de Perpignan","postalcode":"11100","locality":"Narbonne"}}
{"name":"Restaurant H","address":{"thoroughfare":"13 r. Jean-Beausire","postalcode":"75004","locality":"Paris"}}
{"name":"Domaine de Clairefontaine","address":{"thoroughfare":"chemin des Fontanettes","postalcode":"38121","locality":"Chonas-l'Amballan"}}
{"name":"Albert 1er","address":{"thoroughfare":"38 rte du Bouchet","postalcode":"74400","locality":"Chamonix-Mont-Blanc"}}
{"name":"Gavroche","address":{"thoroughfare":"4 r. Klein","postalcode":"67000","locality":"Strasbourg"}}
{"name":"La Table d'Hôtes - Le Quatrième Mur","address":{"thoroughfare":"2 pl. de la Comédie","postalcode":"33000","locality":"Bordeaux"}}
{"name":"Ken Kawasaki","address":{"thoroughfare":"15 r. Caulaincourt","postalcode":"75018","locality":"Paris"}}
{"name":"Val d'Auge","address":{"thoroughfare":"805 av. du Gén.-de-Gaulle","postalcode":"59910","locality":"Bondues"}}
{"name":"ES","address":{"thoroughfare":"91 r. de Grenelle","postalcode":"75007","locality":"Paris"}}
{"name":"Ima","address":{"thoroughfare":"20 bd de la Tour-d'Auvergne","postalcode":"35000","locality":"Rennes"}}
{"name":"Table - Bruno Verjus","address":{"thoroughfare":"3 r. de Prague","postalcode":"75012","locality":"Paris"}}
{"name":"Maison Crouzil et Hôtel L'Écrin","address":{"thoroughfare":"20 les Quais","postalcode":"22130","locality":"Plancoët"}}
{"name":"L'Auberge de Bagatelle","address":{"thoroughfare":"489 av. Bollée","postalcode":"72000","locality":"Le Mans"}}
{"name":"Roscanvec","address":{"thoroughfare":"17 r. des Halles","postalcode":"56000","locality":"Vannes"}}
{"name":"Comice","address":{"thoroughfare":"31 av. de Versailles","postalcode":"75016","locality":"Paris"}}
{"name":"St-James Paris","address":{"thoroughfare":"43 av. Bugeaud","postalcode":"75116","locality":"Paris"}}
{"name":"Le Fanal","address":{"thoroughfare":"17 Avenue du Fontaulé","postalcode":"66650","locality":"Banyuls-sur-Mer"}}
{"name":"Le Mas du Langoustier","address":{"thoroughfare":"","postalcode":"83400","locality":"Hyères"}}
{"name":"La Ville Blanche","address":{"thoroughfare":"La Ville Blanche","postalcode":"22300","locality":"Rospez"}}
{"name":"Pertinence","address":{"thoroughfare":"29 r. de l'Exposition","postalcode":"75007","locality":"Paris"}}
{"name":"Le Restaurant","address":{"thoroughfare":"13 rue des Beaux-Arts","postalcode":"75006","locality":"Paris 06"}}
{"name":"Le 39V","address":{"thoroughfare":"39 Avenue George V","postalcode":"75008","locality":"Paris 08"}}
{"name":"Le P'tit Polyte","address":{"thoroughfare":"2 Rue de la Chapelle","postalcode":"38860","locality":"Les Deux Alpes"}}
{"name":"Montée","address":{"thoroughfare":"9 r. Léopold-Robert","postalcode":"75014","locality":"Paris"}}
{"name":"Hostellerie de l'Abbaye de la Celle","address":{"thoroughfare":"10 Place Général de Gaulle","postalcode":"83170","locality":"La Celle"}}
{"name":"Quai des Saveurs","address":{"thoroughfare":"69 rue de la Gare","postalcode":"57300","locality":"Hagondange"}}
{"name":"Le Jasmin","address":{"thoroughfare":"Lieu-dit Lalande","postalcode":"47140","locality":"Saint-Sylvestre-sur-Lot"}}
{"name":"La Table du Connétable","address":{"thoroughfare":"4 Rue du Connétable","postalcode":"60500","locality":"Chantilly"}}
{"name":"Pierre Reboul","address":{"thoroughfare":"260 r. Guillaume-du-Vair","postalcode":"13546","locality":"Aix-en-Provence"}}
{"name":"Jean Sulpice","address":{"thoroughfare":"303 rte du Port","postalcode":"74290","locality":"Talloires"}}
{"name":"Penati al Baretto","address":{"thoroughfare":"9 rue Balzac","postalcode":"75008","locality":"Paris 08"}}
{"name":"L'Atelier Yssoirien","address":{"thoroughfare":"39 Boulevard Triozon-Bayle","postalcode":"63500","locality":"Issoire"}}
{"name":"Manoir de la Boulaie","address":{"thoroughfare":"33 rue Chapelle St-Martin","postalcode":"44115","locality":"HAUTE-GOULAINE"}}
{"name":"Sur Mesure par Thierry Marx","address":{"thoroughfare":"251 Rue Saint Honoré","postalcode":"75001","locality":"Paris"}}
{"name":"Le Bénaton","address":{"thoroughfare":"25 Rue du Faubourg-Bretonnière","postalcode":"21200","locality":"BEAUNE"}}
{"name":"L'Émulsion","address":{"thoroughfare":"57 rte de Lyon","postalcode":"38080","locality":"Saint-Alban-de-Roche"}}
{"name":"Thierry Drapeau","address":{"thoroughfare":"La Chabotterie","postalcode":"85260","locality":"Saint-Sulpice-le-Verdon"}}
{"name":"Les Chênes Verts","address":{"thoroughfare":"rte de Villecroze","postalcode":"83690","locality":"Tourtour"}}
{"name":"Le Baudelaire","address":{"thoroughfare":"8 rue Duphot","postalcode":"75001","locality":"Paris 01"}}
{"name":"La Fourchette du Printemps","address":{"thoroughfare":"30 r. du Printemps","postalcode":"75017","locality":"Paris"}}
{"name":"La Table de la Ferme","address":{"thoroughfare":"Vallée de l'Ortolo","postalcode":"20100","locality":"Sartène"}}
{"name":"Takao Takano","address":{"thoroughfare":"33 Rue Malesherbes","postalcode":"69006","locality":"Lyon 06"}}
{"name":"L'Almandin","address":{"thoroughfare":"Boulevard de l'Almandin","postalcode":"66750","locality":"Saint-Cyprien"}}
{"name":"Auberge Le Prieuré","address":{"thoroughfare":"4 Grand'Rue","postalcode":"47310","locality":"Moirax"}}
{"name":"Table des Frères Ibarboure","address":{"thoroughfare":"chemin Ttalienea","postalcode":"64210","locality":"Bidart"}}
{"name":"Le Chiberta","address":{"thoroughfare":"3 Rue Arsène Houssaye","postalcode":"75008","locality":"Paris 08"}}
{"name":"Le Moulin de la Gorce","address":{"thoroughfare":"D17","postalcode":"87800","locality":"La Roche-l'Abeille"}}
{"name":"Les Morainières","address":{"thoroughfare":"route de Marétel","postalcode":"73170","locality":"Jongieux"}}
{"name":"Grand Hôtel du Lion d'Or","address":{"thoroughfare":"69 r. Clemenceau","postalcode":"41200","locality":"Romorantin-Lanthenay"}}
{"name":"Akrame","address":{"thoroughfare":"7 r. Tronchet","postalcode":"75008","locality":"Paris"}}
{"name":"À Contre Sens","address":{"thoroughfare":"8-10 r. des Croisiers","postalcode":"14000","locality":"Caen"}}
{"name":"SaQuaNa","address":{"thoroughfare":"22 pl. Hamelin","postalcode":"14600","locality":"Honfleur"}}
{"name":"La Table du Gourmet","address":{"thoroughfare":"5 rue 1ère Armée","postalcode":"68340","locality":"Riquewihr"}}
{"name":"Assa","address":{"thoroughfare":"189 Quai Ulysse Besnard","postalcode":"41000","locality":"Blois"}}
{"name":"Le Puits St-Jacques","address":{"thoroughfare":"av. Victor-Capoul","postalcode":"32600","locality":"Pujaudran"}}
{"name":"L'Arcane","address":{"thoroughfare":"39 Rue Lamarck","postalcode":"75018","locality":"Paris"}}
{"name":"La Table d'Olivier","address":{"thoroughfare":"3 r. St-Ambroise","postalcode":"19100","locality":"Brive-la-Gaillarde"}}
{"name":"Les Tablettes de Jean-Louis Nomicos","address":{"thoroughfare":"16 Avenue Bugeaud","postalcode":"75016","locality":"Paris"}}
{"name":"Yam'Tcha","address":{"thoroughfare":"121 r. St-Honoré","postalcode":"75001","locality":"Paris"}}
{"name":"Terre-Mer","address":{"thoroughfare":"16 r. du Jeu-de-Paume","postalcode":"56400","locality":"Auray"}}
{"name":"Armani Ristorante","address":{"thoroughfare":"149 Boulevard Saint-Germain","postalcode":"75006","locality":"Paris"}}
{"name":"Initial","address":{"thoroughfare":"24 Rue Saint-Manvieu","postalcode":"14000","locality":"Caen"}}
{"name":"Le Sénéchal","address":{"thoroughfare":"Sauveterre de Rouergue","postalcode":"12800","locality":"Sauveterre-de-Rouergue"}}
{"name":"La Roya","address":{"thoroughfare":"plage de la Roya","postalcode":"20217","locality":"Saint-Florent"}}
{"name":"Relais Louis XIII","address":{"thoroughfare":"8 Rue des Grands Augustins","postalcode":"75006","locality":"Paris"}}
{"name":"Le Moulin d'Alotz","address":{"thoroughfare":"chemin Alotz-Errota","postalcode":"64200","locality":"Alotz"}}
{"name":"Château Blanchard","address":{"thoroughfare":"36 rte de St-Galmier","postalcode":"42140","locality":"Chazelles-sur-Lyon"}}
{"name":"L'Aromate","address":{"thoroughfare":"2 r. Gustave Deloye","postalcode":"06000","locality":"Nice"}}
{"name":"Étude","address":{"thoroughfare":"14 r. Bouquet-de-Longchamp","postalcode":"75016","locality":"Paris"}}
{"name":"Le Grand Restaurant - Jean-François Piège","address":{"thoroughfare":"7 r. d'Aguesseau","postalcode":"75008","locality":"Paris"}}
{"name":"L'Atelier de Joël Robuchon - St-Germain","address":{"thoroughfare":"5 r. de Montalembert","postalcode":"75007","locality":"Paris"}}
{"name":"Michel Chabran - La Grande Table","address":{"thoroughfare":"29 Avenue du Quarante-Cinquième Parallèle","postalcode":"26600","locality":"Pont-de-l'Isère"}}
{"name":"Prairial","address":{"thoroughfare":"11 Rue Chavanne","postalcode":"69001","locality":"Lyon"}}
{"name":"JY'S","address":{"thoroughfare":"17 r. de la Poissonnerie","postalcode":"68000","locality":"Colmar"}}
{"name":"Auberge de la Brie","address":{"thoroughfare":"14 av. Alphonse Boulingre","postalcode":"77860","locality":"Couilly-Pont-aux-Dames"}}
{"name":"Le Jardin des Remparts","address":{"thoroughfare":"10 rue Hôtel-Dieu","postalcode":"21200","locality":"Beaune"}}
{"name":"Auberge St-Laurent","address":{"thoroughfare":"1 rue Fontaine","postalcode":"68510","locality":"Sierentz"}}
{"name":"Arpège","address":{"thoroughfare":"84 Rue de Varenne","postalcode":"75007","locality":"Paris"}}
{"name":"Restaurant du Palais Royal","address":{"thoroughfare":"110 Galerie de Valois - Jardin du Palais Royal","postalcode":"75001","locality":"Paris 01"}}
{"name":"Py-r","address":{"thoroughfare":"19 descente de la Halle-aux-Poissons","postalcode":"31000","locality":"Toulouse"}}
{"name":"Auberge de l'Abbaye","address":{"thoroughfare":"47 place des anciens Combattants","postalcode":"01500","locality":"Ambronay"}}
{"name":"L'Esquisse","address":{"thoroughfare":"21 rue Royale","postalcode":"74000","locality":"Annecy"}}
{"name":"Jérôme Feck","address":{"thoroughfare":"19 pl. Mgr-Tissier","postalcode":"51000","locality":"Châlons-en-Champagne"}}
{"name":"Auberge du Paradis","address":{"thoroughfare":"Le Plâtre-Durand","postalcode":"71570","locality":"Saint-Amour-Bellevue"}}
{"name":"L'Atlantide 1874 - Maison Guého","address":{"thoroughfare":"5 r. de l'Hermitage","postalcode":"44100","locality":"Nantes"}}
{"name":"Carré des Feuillants","address":{"thoroughfare":"14 rue de Castiglione","postalcode":"75001","locality":"Paris 01"}}
{"name":"La Ferme de l'Hospital","address":{"thoroughfare":"rte du golf","postalcode":"74160","locality":"Bossey"}}
{"name":"Le Saint-James","address":{"thoroughfare":"3 pl. Camille-Hostein","postalcode":"33270","locality":"BOULIAC"}}
{"name":"La Vague d'Or","address":{"thoroughfare":"Plage de Bouillabaisse","postalcode":"83990","locality":"Saint-Tropez"}}
{"name":"Le Chantecler","address":{"thoroughfare":"37 Promenade des Anglais","postalcode":"06000","locality":"NICE"}}
{"name":"Racine","address":{"thoroughfare":"6 pl. Godinot","postalcode":"51100","locality":"Reims"}}
{"name":"Jérôme Brochot","address":{"thoroughfare":"Place Beaubernard","postalcode":"71300","locality":"Montceau-les-Mines"}}
{"name":"Hostellerie de Levernois","address":{"thoroughfare":"15 r. du Golf","postalcode":"21200","locality":"Levernois"}}
{"name":"I Salti","address":{"thoroughfare":"route du Reginu","postalcode":"20226","locality":"Belgodère"}}
{"name":"Christopher Coutanceau","address":{"thoroughfare":"Promenade de la Concurrence","postalcode":"17000","locality":"La Rochelle"}}
{"name":"La Table des Merville","address":{"thoroughfare":"3 place Richard","postalcode":"31320","locality":"Castanet-Tolosan"}}
{"name":"La Tour des Vents","address":{"thoroughfare":"Le Moulin de Malfourat","postalcode":"24240","locality":"Monbazillac"}}
{"name":"Baumanière 1850","address":{"thoroughfare":"rte de Bellecôte","postalcode":"73120","locality":"Courchevel 1850"}}
{"name":"Villa René Lalique","address":{"thoroughfare":"18 Rue Bellevue","postalcode":"67290","locality":"Wingen-sur-Moder"}}
{"name":"Hélène Darroze","address":{"thoroughfare":"4 rue d'Assas","postalcode":"75006","locality":"Paris 06"}}
{"name":"Le Pavillon","address":{"thoroughfare":"av. du Verger","postalcode":"62520","locality":"Le Touquet-Paris-Plage"}}
{"name":"Côté Jardin","address":{"thoroughfare":"14 rte de Bourges","postalcode":"45500","locality":"Gien"}}
{"name":"La Table des Cordeliers","address":{"thoroughfare":"1 r. des Cordeliers","postalcode":"32100","locality":"Condom"}}
{"name":"Le Camélia","address":{"thoroughfare":"7 quai Georges Clemenceau","postalcode":"78380","locality":"Bougival"}}
{"name":"La Pyramide-Patrick Henriroux","address":{"thoroughfare":"14 Boulevard Fernand Point","postalcode":"38200","locality":"Vienne"}}
{"name":"Raphaël Vionnet","address":{"thoroughfare":"43 Avenue du Général Leclerc","postalcode":"74200","locality":"Thonon-les-Bains"}}
{"name":"Casadelmar","address":{"thoroughfare":"Route de la Plage de Palombaggia","postalcode":"20137","locality":"Porto-Vecchio"}}
{"name":"Le Candille","address":{"thoroughfare":"bd C. Rebuffel","postalcode":"06250","locality":"Mougins"}}
{"name":"Hostellerie du Rosenmeer","address":{"thoroughfare":"45 avenue de la Gare","postalcode":"67560","locality":"ROSHEIM"}}
{"name":"La Marine","address":{"thoroughfare":"11 r. de Paris","postalcode":"50270","locality":"Barneville-Carteret"}}
{"name":"JAN","address":{"thoroughfare":"12 Rue Lascaris","postalcode":"06000","locality":"Nice"}}
{"name":"Avel Vor","address":{"thoroughfare":"25 r. de Locmalo","postalcode":"56290","locality":"Port-Louis"}}
{"name":"Auberge St-Walfrid","address":{"thoroughfare":"58 r. de Grosbliederstroff","postalcode":"57200","locality":"Sarreguemines"}}
{"name":"La Table de La Butte","address":{"thoroughfare":"10 rue de la Mer","postalcode":"29260","locality":"PLOUIDER"}}
{"name":"L'Auberge de la Pomme","address":{"thoroughfare":"44 rue de l' eure","postalcode":"27340","locality":"Les Damps"}}
{"name":"Divellec","address":{"thoroughfare":"18 r. Fabert","postalcode":"75007","locality":"Paris"}}
{"name":"Chez Michèle","address":{"thoroughfare":"57 rue Principale","postalcode":"57810","locality":"Languimberg"}}
{"name":"L'Archeste","address":{"thoroughfare":"79 rue de la Tour","postalcode":"75116","locality":"Paris"}}
{"name":"Le Cloître","address":{"thoroughfare":"Le Cloitre","postalcode":"04300","locality":"Mane"}}
{"name":"Le Prieuré","address":{"thoroughfare":"r. de la Mairie","postalcode":"42820","locality":"Ambierle"}}
{"name":"Les Tables de Gaspard","address":{"thoroughfare":"r. Principale","postalcode":"05600","locality":"St-Crépin"}}
{"name":"Le Belvédère","address":{"thoroughfare":"11 rte du Maquis-Jean-Pierre","postalcode":"12340","locality":"Bozouls"}}
{"name":"Château du Mont Joly","address":{"thoroughfare":"6 r. du Mont-Joly","postalcode":"39100","locality":"Sampans"}}
{"name":"Intuition","address":{"thoroughfare":"1 r. Alsace-Lorraine","postalcode":"50000","locality":"Saint-Lô"}}
{"name":"Auberge du Vert Mont","address":{"thoroughfare":"1318 r. du Mont-Noir","postalcode":"59299","locality":"Boeschepe"}}
{"name":"Aida","address":{"thoroughfare":"1 r. Pierre Leroux","postalcode":"75007","locality":"Paris 07"}}
{"name":"Le Grand Cerf","address":{"thoroughfare":"50 rte Nationale","postalcode":"51500","locality":"Montchenot"}}
{"name":"Garance","address":{"thoroughfare":"34 r. St-Dominique","postalcode":"75007","locality":"Paris"}}
{"name":"Le Cerf","address":{"thoroughfare":"30 r. du Gén.-de-Gaulle","postalcode":"67520","locality":"Marlenheim"}}
{"name":"L'Orangerie du Château","address":{"thoroughfare":"1 Avenue du Docteur Jean Laigret","postalcode":"41000","locality":"Blois"}}
{"name":"Le Jules Verne","address":{"thoroughfare":"2<E>ème</E> étage Tour Eiffel","postalcode":"75007","locality":"Paris"}}
{"name":"Christophe Bacquié","address":{"thoroughfare":"Hotel du Castellet Route des Hauts du Camp","postalcode":"83330","locality":"Le Castellet"}}
{"name":"Le Meurice Alain Ducasse","address":{"thoroughfare":"228 Rue de Rivoli","postalcode":"75001","locality":"Paris"}}
{"name":"Château de Courban","address":{"thoroughfare":"7 rue du Lavoir","postalcode":"21520","locality":"Courban"}}
{"name":"Le Millénaire","address":{"thoroughfare":"4 rue Bertin","postalcode":"51100","locality":"Reims"}}
{"name":"La Marelle","address":{"thoroughfare":"1593 av. de Lyon","postalcode":"01960","locality":"PERONNAS"}}
{"name":"Maximilien","address":{"thoroughfare":"19a rte Ostheim","postalcode":"68340","locality":"Zellenberg"}}
{"name":"Le Vieux Logis","address":{"thoroughfare":"Le Bourg","postalcode":"24510","locality":"Trémolat"}}
{"name":"Faventia","address":{"thoroughfare":"3100 route de Bagnols-en-Forêt","postalcode":"83440","locality":"Tourrettes"}}
{"name":"L'Essentiel","address":{"thoroughfare":"29 Rue Mirabeau","postalcode":"14800","locality":"DEAUVILLE"}}
{"name":"Clovis","address":{"thoroughfare":"21 Grand-Rue","postalcode":"06140","locality":"Tourrettes-sur-Loup"}}
{"name":"La Palmeraie","address":{"thoroughfare":"81 Boulevard de Gigaro","postalcode":"83420","locality":"La Croix-Valmer"}}
{"name":"Palm Beach","address":{"thoroughfare":"route des Iles Sanguinaires","postalcode":"20000","locality":"Ajaccio"}}
{"name":"L'Impertinent","address":{"thoroughfare":"5, rue d'Alsace","postalcode":"64200","locality":"Biarritz"}}
{"name":"Gordon Ramsay au Trianon","address":{"thoroughfare":"1 bd de la Reine","postalcode":"78000","locality":"Versailles"}}
{"name":"Alcyone","address":{"thoroughfare":"1 Place Daviel","postalcode":"13002","locality":"MARSEILLE"}}
{"name":"Julien Binz","address":{"thoroughfare":"7 Rue des Cigognes","postalcode":"68770","locality":"Ammerschwihr"}}
{"name":"La Table du Connétable","address":{"thoroughfare":"4 Rue du Connétable","postalcode":"60500","locality":"Chantilly"}}
{"name":"Au 14 Février","address":{"thoroughfare":"2 r. du Portail","postalcode":"36100","locality":"Saint-Valentin"}}
{"name":"La Grand'Vigne","address":{"thoroughfare":"chemin de Smith-Haut-Lafitte","postalcode":"33650","locality":"Martillac"}}
{"name":"La Villa Madie","address":{"thoroughfare":"av. du Revestel","postalcode":"13260","locality":"Cassis"}}
{"name":"L'Amphitryon","address":{"thoroughfare":"127 r. du Col. -Müller","postalcode":"56100","locality":"Lorient"}}
{"name":"Mon Plaisir","address":{"thoroughfare":"22 lieu-dit Journal","postalcode":"25190","locality":"Chamesol"}}
{"name":"La Matelote","address":{"thoroughfare":"80 Boulevard Ste Beuve","postalcode":"62200","locality":"BOULOGNE-SUR-MER"}}
{"name":"Louison","address":{"thoroughfare":"2750 route de la cride","postalcode":"13610","locality":"Le Puy-Sainte-Réparade"}}
{"name":"L'Aubergade","address":{"thoroughfare":"78 rte Nationale","postalcode":"80480","locality":"Dury"}}
{"name":"Les Ducs de Lorraine","address":{"thoroughfare":"5 av. Provence","postalcode":"88000","locality":"Épinal"}}
{"name":"Nakatani","address":{"thoroughfare":"27 Rue Pierre Leroux","postalcode":"75007","locality":"PARIS"}}
{"name":"Les Terraillers","address":{"thoroughfare":"11 Route Chemin-Neuf","postalcode":"06410","locality":"Biot"}}
{"name":"Le Pily","address":{"thoroughfare":"39 Grande-Rue","postalcode":"50100","locality":"Cherbourg-en-Cotentin"}}
{"name":"Sylvestre","address":{"thoroughfare":"79 rue St-Dominique","postalcode":"75007","locality":"Paris"}}
{"name":"Le Pavé d'Auge","address":{"thoroughfare":"D49","postalcode":"14430","locality":"Beuvron-en-Auge"}}
{"name":"La Grande Maison de Bernard Magrez","address":{"thoroughfare":"10 Rue Labottière","postalcode":"33000","locality":"Bordeaux"}}
{"name":"Le Quincangrogne","address":{"thoroughfare":"7 Rue de l'Abreuvoir","postalcode":"77400","locality":"Dampmart"}}
{"name":"Pages","address":{"thoroughfare":"4 r. Auguste-Vacquerie","postalcode":"75016","locality":"Paris"}}
{"name":"Auberge Frankenbourg","address":{"thoroughfare":"13 r. Gén. de Gaulle","postalcode":"67730","locality":"La Vancelle"}}
{"name":"L'Abeille","address":{"thoroughfare":"10 Avenue d'Iéna","postalcode":"75016","locality":"Paris 16"}}
{"name":"La Bergerie","address":{"thoroughfare":"D999","postalcode":"63490","locality":"Sarpoil"}}
{"name":"Le Petit Nice","address":{"thoroughfare":"Anse de Maldormé - Corniche J. F. Kennedy","postalcode":"13007","locality":"Marseille 07"}}
{"name":"Lou Cigalon-Maison Martin","address":{"thoroughfare":"6 bd Carnot","postalcode":"06560","locality":"Valbonne"}}
{"name":"Le Puits du Trésor","address":{"thoroughfare":"21 rte des Quatre-Châteaux","postalcode":"11600","locality":"Lastours"}}
{"name":"Château de Vauchoux","address":{"thoroughfare":"","postalcode":"70170","locality":"Vauchoux"}}
{"name":"Radio","address":{"thoroughfare":"43 av. P. et M.-Curie","postalcode":"63400","locality":"Chamalières"}}
{"name":"Mariottat","address":{"thoroughfare":"25 r. L.-Vivent","postalcode":"47000","locality":"Agen"}}
{"name":"Mirazur","address":{"thoroughfare":"30, Avenue Aristide Briand","postalcode":"06500","locality":"Menton"}}
{"name":"1741","address":{"thoroughfare":"22 Quai des Bateliers","postalcode":"67000","locality":"Strasbourg"}}
{"name":"64° Le Restaurant","address":{"thoroughfare":"9-13 Rue du Général de Gaulle","postalcode":"68240","locality":"Kaysersberg"}}
{"name":"Fanny Rey & Jonathan Wahid","address":{"thoroughfare":"12, boulevard Mirabeau","postalcode":"13210","locality":"SAINT REMY DE PROVENCE"}}
{"name":"Le Château de Sable","address":{"thoroughfare":"38 r. de l'Europe","postalcode":"29840","locality":"Porspoder"}}
{"name":"La Table de Patrick Raingeard","address":{"thoroughfare":"1312 av. Raymond-Poincaré","postalcode":"06360","locality":"EZE-BORD-DE-MER"}}
{"name":"L'Arnsbourg","address":{"thoroughfare":"Untermuhlthal","postalcode":"57230","locality":"Baerenthal"}}
{"name":"Le Pressoir d'Argent - Gordon Ramsay","address":{"thoroughfare":"2,5 Place de la Comédie","postalcode":"33000","locality":"Bordeaux"}}
{"name":"L'Atelier d'Edmond","address":{"thoroughfare":"au Fornet","postalcode":"73150","locality":"Val-d'Isère"}}
{"name":"Le Gindreau","address":{"thoroughfare":"D5","postalcode":"46150","locality":"Saint-Médard"}}
{"name":"Lamartine","address":{"thoroughfare":"Route du Tunnel du Chat","postalcode":"73370","locality":"Le Bourget du Lac"}}
{"name":"Auberge du Dun","address":{"thoroughfare":"3 rte de Dieppe","postalcode":"76740","locality":"Le Bourg-Dun"}}
{"name":"La Petite Maison de Cucuron","address":{"thoroughfare":"pl. de l'Étang","postalcode":"84160","locality":"Cucuron"}}
{"name":"Le Foch","address":{"thoroughfare":"37 bd Foch","postalcode":"51100","locality":"Reims"}}
{"name":"L'Éveil des Sens","address":{"thoroughfare":"429 bd Paul-Lintier","postalcode":"53100","locality":"Mayenne"}}
{"name":"Le St-Placide","address":{"thoroughfare":"6 place du poncel","postalcode":"35400","locality":"Saint-Malo"}}
{"name":"G.a. au Manoir de Rétival","address":{"thoroughfare":"2 rue St. Clair","postalcode":"76490","locality":"Caudebec-en-Caux"}}
{"name":"Au Souper Fin","address":{"thoroughfare":"1 rte de Clères","postalcode":"76690","locality":"Frichemesnil"}}
{"name":"1131","address":{"thoroughfare":"D 33","postalcode":"21360","locality":"La Bussière-sur-Ouche"}}
{"name":"La Voile","address":{"thoroughfare":"chemin de la Quessine","postalcode":"83350","locality":"Ramatuelle"}}
{"name":"Le Pressoir","address":{"thoroughfare":"7 r. de l'Hôpital","postalcode":"56890","locality":"Saint-Avé"}}
{"name":"Elsa","address":{"thoroughfare":"Monte-Carlo Beach - Avenue Princesse Grace","postalcode":"06190","locality":"Roquebrune Cap-Martin"}}
{"name":"Le Kaïku","address":{"thoroughfare":"17 r. de la République","postalcode":"64500","locality":"Saint-Jean-de-Luz"}}
{"name":"Le M","address":{"thoroughfare":"22 r. du Cdt-Drogou","postalcode":"29200","locality":"Brest"}}
{"name":"La Barbacane","address":{"thoroughfare":"Place Auguste-Pierre-Pont","postalcode":"11000","locality":"Carcassonne"}}
{"name":"Apicius","address":{"thoroughfare":"Marché Saint Pierre 1 étage","postalcode":"63000","locality":"Clermont-Ferrand"}}
{"name":"Ze Kitchen Galerie","address":{"thoroughfare":"4 r. des Grands-Augustins","postalcode":"75006","locality":"Paris"}}
{"name":"Cobéa","address":{"thoroughfare":"11 r. Raymond Losserand","postalcode":"75014","locality":"Paris 14"}}
{"name":"Le Pré du Moulin","address":{"thoroughfare":"rte de Ste-Cécile-les-Vignes","postalcode":"84830","locality":"Sérignan-du-Comtat"}}
{"name":"Le Bec au Cauchois","address":{"thoroughfare":"22 Rue André Fiquet","postalcode":"76540","locality":"Valmont"}}
{"name":"Domaine d'Auriac","address":{"thoroughfare":"Route de Saint-Hilaire","postalcode":"11000","locality":"Carcassonne"}}
{"name":"Le Raisin","address":{"thoroughfare":"2 pl. M. -Poisat","postalcode":"01190","locality":"Pont-de-Vaux"}}
{"name":"La Grange de Belle-Église","address":{"thoroughfare":"28 bd René-Aimé-Lagabrielle","postalcode":"60540","locality":"Belle-Église"}}
{"name":"Xavier Mathieu","address":{"thoroughfare":"Route de Murs","postalcode":"84220","locality":"Joucas"}}
{"name":"La Bonne Étape","address":{"thoroughfare":"chemin du lac","postalcode":"04160","locality":"Château-Arnoux"}}
{"name":"Flocons de Sel","address":{"thoroughfare":"1775 rte du Leutaz","postalcode":"74120","locality":"Megève"}}
{"name":"L'Ekrin by Laurent Azoulay","address":{"thoroughfare":"Route de la Montée","postalcode":"73550","locality":"MERIBEL"}}
{"name":"Au Déjeuner de Sousceyrac","address":{"thoroughfare":"r. Pierre-Benoit","postalcode":"46190","locality":"Sousceyrac"}}
{"name":"Aux Pesked","address":{"thoroughfare":"59 Rue du Légué","postalcode":"22000","locality":"Saint-Brieuc"}}
{"name":"Le Magasin aux Vivres","address":{"thoroughfare":"5 Avenue Ney","postalcode":"57000","locality":"Metz"}}
{"name":"Au 14 Février","address":{"thoroughfare":"36 r. du Bœuf","postalcode":"","locality":"Lyon 05"}}
{"name":"La Marande","address":{"thoroughfare":"lieu-dit Mirande","postalcode":"71260","locality":"Montbellet"}}
{"name":"Auberge du Bon Laboureur","address":{"thoroughfare":"6 r. Dr Bretonneau","postalcode":"37150","locality":"Chenonceaux"}}
{"name":"L'Hysope","address":{"thoroughfare":"25 r. de l'Aurore","postalcode":"17220","locality":"La Jarrie"}}
{"name":"Le Cerisier","address":{"thoroughfare":"3 rue de la Gare","postalcode":"62840","locality":"LAVENTIE"}}
{"name":"Anne de Bretagne","address":{"thoroughfare":"163, Boulevard de la Tara","postalcode":"44770","locality":"La Plaine-sur-Mer"}}
{"name":"Le Neuvième Art","address":{"thoroughfare":"173 r. Cuvier","postalcode":"69006","locality":"Lyon"}}
{"name":"Le Gourmet de Sèze","address":{"thoroughfare":"125 Rue de Sèze","postalcode":"69006","locality":"Lyon"}}
{"name":"Frédéric Doucet","address":{"thoroughfare":"2 avenue de la Libération","postalcode":"71120","locality":"Charolles"}}
{"name":"La Coopérative","address":{"thoroughfare":"2A Route de Caladroy","postalcode":"66720","locality":"Bélesta"}}
{"name":"Les Jardins de l'Espadon","address":{"thoroughfare":"15 place Vendôme","postalcode":"75001","locality":"Paris"}}
{"name":"Le Lièvre Gourmand","address":{"thoroughfare":"28 quai du Châtelet","postalcode":"45000","locality":"Orléans"}}
{"name":"Auberge La Fenière","address":{"thoroughfare":"D943","postalcode":"84160","locality":"Cadenet"}}
{"name":"Yoann Conte","address":{"thoroughfare":"13 Vieille-Route-des-Pensières","postalcode":"74290","locality":"Veyrier-du-Lac"}}
{"name":"Le Gambetta","address":{"thoroughfare":"12 r. Gambetta","postalcode":"49400","locality":"Saumur"}}
{"name":"Maison Lameloise","address":{"thoroughfare":"36 pl. d'Armes","postalcode":"71150","locality":"Chagny"}}
{"name":"Helen","address":{"thoroughfare":"3 r.Berryer","postalcode":"75008","locality":"Paris"}}
{"name":"La Gourmandière - La Table d'Olivier","address":{"thoroughfare":"D126","postalcode":"56000","locality":"Vannes"}}
{"name":"Le Favre d'Anne","address":{"thoroughfare":"21 bd du Mar.-Foch","postalcode":"49000","locality":"Angers"}}
{"name":"Vieux Pont","address":{"thoroughfare":"","postalcode":"12390","locality":"Belcastel"}}
{"name":"Le Pergolèse","address":{"thoroughfare":"40 Rue Pergolèse","postalcode":"75116","locality":"Paris"}}
{"name":"Les Pêcheurs","address":{"thoroughfare":"10 boulevard du Maréchal-Juin","postalcode":"06600","locality":"Antibes"}}
{"name":"Le Relais des Moines","address":{"thoroughfare":"route de Ste-Roseline","postalcode":"83460","locality":"Les Arcs"}}
{"name":"La Licorne Royale","address":{"thoroughfare":"27 Place Isaac Benserade","postalcode":"27480","locality":"Lyons-la-Forêt"}}
{"name":"La Coquerie","address":{"thoroughfare":"1 chemin du Cimetière-Marin","postalcode":"34200","locality":"Sète"}}
{"name":"Le Bon Accueil","address":{"thoroughfare":"32 Grande-Rue","postalcode":"25160","locality":"Malbuisson"}}
{"name":"En Pleine Nature","address":{"thoroughfare":"6 pl. de la Mairie","postalcode":"31130","locality":"Fonsegrives"}}
{"name":"Meulien","address":{"thoroughfare":"1 bis av. des Alpes","postalcode":"71700","locality":"Tournus"}}
{"name":"Château de Mercuès","address":{"thoroughfare":"Route du Château","postalcode":"46090","locality":"Mercuès"}}
{"name":"La Grenouillère","address":{"thoroughfare":"19 r. de la Grenouillère","postalcode":"62170","locality":"La Madelaine-sous-Montreuil"}}
{"name":"Numéro 3","address":{"thoroughfare":"3 rue du Général de Gaulle","postalcode":"78490","locality":"Le Tremblay-sur-Mauldre"}}
{"name":"Les Hautes Roches","address":{"thoroughfare":"86 quai de Loire","postalcode":"37210","locality":"Rochecorbon"}}
{"name":"Le Bistro des Saveurs","address":{"thoroughfare":"35 Rue de Sélestat","postalcode":"67210","locality":"Obernai"}}
{"name":"Chapelle Saint-Martin","address":{"thoroughfare":"33, Saint Martin du Fault","postalcode":"87510","locality":"Nieul"}}
{"name":"La Table de Manville","address":{"thoroughfare":"Domaine de Manville - D27","postalcode":"13520","locality":"LES-BAUX-DE-PROVENCE"}}
{"name":"Les Clefs d'Argent","address":{"thoroughfare":"333 Avenue des Martyrs de la Résistance","postalcode":"40000","locality":"Mont-de-Marsan"}}
{"name":"Auberge Grand'Maison","address":{"thoroughfare":"1 r. Léon-le-Cerf","postalcode":"22530","locality":"Mûr-de-Bretagne"}}
{"name":"Le Parc Les Crayères","address":{"thoroughfare":"64 Boulevard Henry Vasnier","postalcode":"51100","locality":"Reims"}}
{"name":"Auberge Tiegezh","address":{"thoroughfare":"7 Place de la Gare","postalcode":"56380","locality":"Guer"}}
{"name":"Le Sérac","address":{"thoroughfare":"22 r. de la Comtesse","postalcode":"74170","locality":"Saint-Gervais-les-Bains"}}
{"name":"L'Ambroisie","address":{"thoroughfare":"9 Place des Vosges","postalcode":"75004","locality":"Paris"}}
{"name":"Les Cèdres","address":{"thoroughfare":"25 Rue Henri MACHON","postalcode":"26600","locality":"Granges-les-Beaumont"}}
{"name":"L'Axel","address":{"thoroughfare":"43 r. de France","postalcode":"77300","locality":"Fontainebleau"}}
{"name":"Le Colombier","address":{"thoroughfare":"r. Loucheur","postalcode":"76550","locality":"Offranville"}}
{"name":"Lucas Carton","address":{"thoroughfare":"9 pl. de la Madeleine","postalcode":"75008","locality":"Paris 08"}}
{"name":"Têtedoie","address":{"thoroughfare":"4 Rue Professeur Pierre Marion","postalcode":"69005","locality":"Lyon 05"}}
{"name":"Le Grand Bleu","address":{"thoroughfare":"43 av. de la Gare","postalcode":"24200","locality":"Sarlat-la-Canéda"}}
{"name":"Tour d'Argent","address":{"thoroughfare":"15 quai de la Tournelle","postalcode":"75005","locality":"Paris"}}
{"name":"Maison Rostang","address":{"thoroughfare":"20 rue Rennequin","postalcode":"75017","locality":"Paris"}}
{"name":"Le Lido","address":{"thoroughfare":"42 av. Napoléon-III","postalcode":"20110","locality":"Propriano"}}
{"name":"Origine","address":{"thoroughfare":"26 Rampe Cauchoise","postalcode":"76000","locality":"Rouen"}}
{"name":"Neige d'Été","address":{"thoroughfare":"12 Rue de l'Amiral Roussin","postalcode":"75015","locality":"Paris 15"}}
{"name":"Le Chiquito","address":{"thoroughfare":"3 r. de l'Oise, La Bonneville","postalcode":"95540","locality":"Méry-sur-Oise"}}
{"name":"Château de Codignat","address":{"thoroughfare":"Bort l'Etang","postalcode":"63190","locality":"Bort-l'Étang"}}
{"name":"Le Coquillage","address":{"thoroughfare":"Lieu-dit Le Buot","postalcode":"35350","locality":"Saint-Méloir-des-Ondes"}}
{"name":"Les Trois Dômes","address":{"thoroughfare":"20 quai Gailleton","postalcode":"69002","locality":"Lyon"}}
{"name":"Auberge des Templiers","address":{"thoroughfare":"D2007","postalcode":"45290","locality":"Les Bézards"}}
{"name":"Aux Terrasses","address":{"thoroughfare":"18 av. du 23-Janvier","postalcode":"71700","locality":"Tournus"}}
{"name":"La Vieille Tour","address":{"thoroughfare":"75 r. de la Tour","postalcode":"22190","locality":"Plérin"}}
{"name":"L'Aquarelle","address":{"thoroughfare":"71 A rte du Montil","postalcode":"17920","locality":"Breuillet"}}
{"name":"La Table de l'Espadon","address":{"thoroughfare":"15 Place Vendôme","postalcode":"75001","locality":"Paris"}}
{"name":"Les Fresques","address":{"thoroughfare":"13 Avenue des Mateirons","postalcode":"74500","locality":"Évian-les-Bains"}}
{"name":"La Table d'Eugène","address":{"thoroughfare":"18 r. Eugène-Sue","postalcode":"75018","locality":"Paris"}}
{"name":"Villa Archange","address":{"thoroughfare":"Rue de l'Ouest","postalcode":"06110","locality":"Le Cannet"}}
{"name":"Auberge du Cellier","address":{"thoroughfare":"1 Rue de Sainte-Eugénie","postalcode":"66720","locality":"Montner"}}
{"name":"L'Auberge Basque","address":{"thoroughfare":"quartier Helbarron","postalcode":"64310","locality":"Saint-Pée-sur-Nivelle"}}
{"name":"Auberge St-Jean","address":{"thoroughfare":"8 r. du Pont","postalcode":"33420","locality":"Saint-Jean-de-Blaignac"}}
{"name":"La Table by La Villa","address":{"thoroughfare":"chemin de Notre-Dame-de-la-Serra","postalcode":"20260","locality":"Calvi"}}
{"name":"Le Farçon","address":{"thoroughfare":"immeuble la Kalinka","postalcode":"73125","locality":"La Tania"}}
{"name":"Le Vivier","address":{"thoroughfare":"800 cours F. Peyre (rte de Carpentras)","postalcode":"84800","locality":"L'Isle-sur-la-Sorgue"}}
{"name":"Les Bories","address":{"thoroughfare":"rte de l'Abbaye de Sénanque","postalcode":"84220","locality":"Gordes"}}
{"name":"Greuze","address":{"thoroughfare":"1 r. A. Thibaudet","postalcode":"71700","locality":"Tournus"}}
{"name":"Le Cinq","address":{"thoroughfare":"31 av. George V","postalcode":"75008","locality":"Paris 08"}}
{"name":"Shang Palace","address":{"thoroughfare":"10 Avenue d'Iéna","postalcode":"75016","locality":"Paris 16"}}
{"name":"Buerehiesel","address":{"thoroughfare":"dans le parc de l'Orangerie","postalcode":"67000","locality":"Strasbourg"}}
{"name":"Dyades au Domaine des Étangs","address":{"thoroughfare":"Les Etangs","postalcode":"16310","locality":"MASSIGNAC"}}
{"name":"L'Atelier de Jean-Luc Rabanel","address":{"thoroughfare":"7 r. des Carmes","postalcode":"13200","locality":"Arles"}}
{"name":"Alain Ducasse au Plaza Athénée","address":{"thoroughfare":"25 avenue Montaigne","postalcode":"75008","locality":"Paris"}}
{"name":"Les Terrasses de Lyon","address":{"thoroughfare":"25, montée Saint BArthelémy","postalcode":"69005","locality":"Lyon 05"}}
{"name":"Umami","address":{"thoroughfare":"8 r. des Dentelles","postalcode":"67000","locality":"Strasbourg"}}
{"name":"Château de Pray","address":{"thoroughfare":"Rue du Cèdre","postalcode":"37400","locality":"Amboise"}}
{"name":"Le Brittany","address":{"thoroughfare":"bd Ste-Barbe","postalcode":"29681","locality":"Roscoff"}}
{"name":"La Closerie","address":{"thoroughfare":"bd des Platanes","postalcode":"84240","locality":"Ansouis"}}
{"name":"L'Amphitryon","address":{"thoroughfare":"chemin de Gramont","postalcode":"31770","locality":"Colomiers"}}
{"name":"René et Maxime Meilleur","address":{"thoroughfare":"Saint Marcel","postalcode":"73440","locality":"Saint-Martin-de-Belleville"}}
{"name":"Le Carré d'Alethius","address":{"thoroughfare":"4 r. Paul-Bertois","postalcode":"07800","locality":"Charmes-sur-Rhône"}}
{"name":"Le Montgomerie","address":{"thoroughfare":"356 rte de l'Altiport","postalcode":"73120","locality":"Courchevel 1850"}}
{"name":"Au 14 Février","address":{"thoroughfare":"Le Plâtre-Durand","postalcode":"71570","locality":"Saint-Amour-Bellevue"}}
{"name":"Les Trois Rochers","address":{"thoroughfare":"16 rue du Phare","postalcode":"29120","locality":"Sainte-Marine"}}
{"name":"Le Castellaras","address":{"thoroughfare":"461 chemin Peymeyan","postalcode":"83440","locality":"Fayence"}}
{"name":"J.-M. Pérochon","address":{"thoroughfare":"63 avenue de la Grand'Roche","postalcode":"85470","locality":"Brétignolles-sur-Mer"}}
{"name":"Auberge de la Charme","address":{"thoroughfare":"12 r. de la Charme","postalcode":"21370","locality":"Prenois"}}
{"name":"1217","address":{"thoroughfare":"le bourg","postalcode":"69620","locality":"Bagnols"}}
{"name":"Domaine des Hauts de Loire","address":{"thoroughfare":"79 rue Gilbert Navard","postalcode":"41150","locality":"Onzain"}}
{"name":"La Grignotière","address":{"thoroughfare":"6 Rue Jean Jaures","postalcode":"59590","locality":"Raismes"}}
{"name":"Les Rosiers","address":{"thoroughfare":"32 av. Beau Soleil","postalcode":"64200","locality":"Biarritz"}}
{"name":"David Toutain","address":{"thoroughfare":"29 r. Surcouf","postalcode":"75007","locality":"Paris"}}
{"name":"Le Chateaubriand","address":{"thoroughfare":"129 av. Parmentier","postalcode":"75011","locality":"Paris"}}
{"name":"Paloma","address":{"thoroughfare":"47 Avenue du Moulin de la Croix","postalcode":"06250","locality":"Mougins"}}
{"name":"Loiseau des Vignes","address":{"thoroughfare":"31 Rue Jean Francois Maufoux","postalcode":"21200","locality":"Beaune"}}
{"name":"La Ribaudière","address":{"thoroughfare":"2 pl. du Port","postalcode":"16200","locality":"Bourg-Charente"}}
{"name":"Flaveur","address":{"thoroughfare":"25 Rue Gubernatis","postalcode":"06000","locality":"Nice"}}
{"name":"La Dame de Pic","address":{"thoroughfare":"20 Rue du Louvre","postalcode":"75001","locality":"Paris 01"}}
{"name":"Kei","address":{"thoroughfare":"5 rue du Coq-Héron","postalcode":"75001","locality":"Paris 01"}}
{"name":"Mickaël Féval","address":{"thoroughfare":"11 Petite-Rue-St-Jean","postalcode":"13100","locality":"Aix-en-Provence"}}
{"name":"Michel Trama","address":{"thoroughfare":"52 r. Royale","postalcode":"47270","locality":"Puymirol"}}
{"name":"Dominique Bouchet","address":{"thoroughfare":"11 Rue Treilhard","postalcode":"75008","locality":"Paris"}}
{"name":"Gaya Rive Gauche par Pierre Gagnaire","address":{"thoroughfare":"44 r. du Bac","postalcode":"75007","locality":"Paris"}}
{"name":"La Maison dans le Parc","address":{"thoroughfare":"3 r. Ste-Catherine","postalcode":"54000","locality":"Nancy"}}
{"name":"Le Figuier de St-Esprit","address":{"thoroughfare":"7, Promenade Amiral de Grasse","postalcode":"06600","locality":"Antibes"}}
{"name":"Jean-Luc Tartarin","address":{"thoroughfare":"Square Saint-Roch","postalcode":"76600","locality":"Le Havre"}}
{"name":"Une Île","address":{"thoroughfare":"9 r. Max-Richard","postalcode":"49000","locality":"Angers"}}
{"name":"Georges Blanc","address":{"thoroughfare":"pl. du Marché","postalcode":"01540","locality":"Vonnas"}}
{"name":"Le Passe Temps","address":{"thoroughfare":"52 Rue Tronchet","postalcode":"69006","locality":"Lyon"}}
{"name":"L'Atelier de Gaztelur","address":{"thoroughfare":"Chemin de Gastelhur","postalcode":"64200","locality":"Arcangues"}}
{"name":"Alan Geaam","address":{"thoroughfare":"19 Rue Lauriston","postalcode":"75016","locality":"Paris"}}
{"name":"Auberge du Vieux Puits","address":{"thoroughfare":"5 Avenue Saint-Victor","postalcode":"11360","locality":"Fontjoncouse"}}
{"name":"Pierre","address":{"thoroughfare":"7-9 rue Joseph Dufour","postalcode":"71000","locality":"Mâcon"}}
{"name":"La Renaissance","address":{"thoroughfare":"20 av. 2e-Division-Blindée","postalcode":"61200","locality":"Argentan"}}
{"name":"Le Grand Véfour","address":{"thoroughfare":"17 rue de Beaujolais","postalcode":"75001","locality":"Paris"}}
{"name":"L'Essentiel","address":{"thoroughfare":"8 r. de la Clarté","postalcode":"24000","locality":"Périgueux"}}
{"name":"Astrance","address":{"thoroughfare":"4 r. Beethoven","postalcode":"75016","locality":"Paris"}}
{"name":"Maison Decoret","address":{"thoroughfare":"15 rue du Parc","postalcode":"03200","locality":"Vichy"}}
{"name":"Les Climats","address":{"thoroughfare":"41 rue de Lille","postalcode":"75007","locality":"Paris 07"}}
{"name":"Le 7ème Continent","address":{"thoroughfare":"35 av. Gén. -de-Gaulle","postalcode":"68170","locality":"Rixheim"}}
{"name":"L'Auberge des Glazicks","address":{"thoroughfare":"7 rue de la Plage","postalcode":"29550","locality":"PLOMODIERN"}}
{"name":"Au Trou Gascon","address":{"thoroughfare":"40 rue Taine","postalcode":"75012","locality":"Paris"}}
{"name":"La Bastide de Capelongue","address":{"thoroughfare":"Chemin des Cabanes","postalcode":"84480","locality":"Bonnieux"}}
{"name":"Auberge de la Diligence","address":{"thoroughfare":"4 r. de la Libération","postalcode":"49440","locality":"Loiré"}}
{"name":"Alexandre","address":{"thoroughfare":"2 rue Xavier Tronc","postalcode":"30128","locality":"Garons"}}
{"name":"Les Genêts","address":{"thoroughfare":"21 bis Rue de l'Océan","postalcode":"85470","locality":"Brem-sur-Mer"}}
{"name":"Apicius","address":{"thoroughfare":"Marché Saint Pierre 1 étage","postalcode":"63000","locality":"Clermont-Ferrand"}}
{"name":"La Table de Nans","address":{"thoroughfare":"corniche du Liouquet","postalcode":"13600","locality":"La Ciotat"}}
{"name":"L'Aparté","address":{"thoroughfare":"21 Rue de l’Europe","postalcode":"31850","locality":"MONTRABE"}}
{"name":"Les Bacchanales","address":{"thoroughfare":"247 avenue de Provence","postalcode":"06140","locality":"VENCE"}}
{"name":"Henri et Joseph","address":{"thoroughfare":"4 r. Léo-le-Bourgo","postalcode":"56100","locality":"Lorient"}}
{"name":"Septime","address":{"thoroughfare":"80 r. de Charonne","postalcode":"75011","locality":"Paris"}}
{"name":"La Table du 11","address":{"thoroughfare":"8 rue de la chancellerie","postalcode":"78000","locality":"Versailles"}}
{"name":"Le Park 45","address":{"thoroughfare":"45 bd de la Croisette","postalcode":"06400","locality":"Cannes"}}
{"name":"La Table de l'Alpaga","address":{"thoroughfare":"66 Allée des Marmousets","postalcode":"74120","locality":"Megève"}}
{"name":"La Promenade","address":{"thoroughfare":"2 promenade Jean-Jaurès","postalcode":"31590","locality":"Verfeil"}}
{"name":"L'Arôme","address":{"thoroughfare":"3 rue St-Philippe-du-Roule","postalcode":"75008","locality":"Paris 08"}}
{"name":"Les Berceaux","address":{"thoroughfare":"13 rue des Berceaux","postalcode":"51200","locality":"Épernay"}}
{"name":"L'Escarbille","address":{"thoroughfare":"8 Rue de Vélizy","postalcode":"92190","locality":"Meudon"}}
{"name":"Fontevraud Le Restaurant","address":{"thoroughfare":"38 rue St-Jean-de-l'Habit","postalcode":"49590","locality":"FONTEVRAUD-L'ABBAYE"}}
{"name":"La Table Breizh Café","address":{"thoroughfare":"7 quai Thomas","postalcode":"35260","locality":"Cancale"}}
{"name":"Le Clocher des Pères","address":{"thoroughfare":"D213","postalcode":"73130","locality":"Saint-Martin-sur-la-Chambre"}}
{"name":"1912","address":{"thoroughfare":"bd de la Cahotte","postalcode":"14360","locality":"Trouville-sur-Mer"}}
{"name":"Jérémy Galvan","address":{"thoroughfare":"Rue du Boeuf","postalcode":"69005","locality":"Lyon 05"}}
{"name":"Le Clos St-Pierre","address":{"thoroughfare":"pl. de la Mairie","postalcode":"06650","locality":"Le Rouret"}}
{"name":"Maison Jeunet","address":{"thoroughfare":"9 r. de l'Hôtel-de-Ville","postalcode":"39600","locality":"Arbois"}}
{"name":"Le Jardin des Plumes","address":{"thoroughfare":"1 Rue du Milieu","postalcode":"27620","locality":"Giverny"}}
{"name":"Au Crocodile","address":{"thoroughfare":"10 rue de L'Outre","postalcode":"67000","locality":"STRASBOURG"}}
{"name":"La Marine","address":{"thoroughfare":"3 r. Marie-Lemonnier","postalcode":"85330","locality":"L'Herbaudière"}}
{"name":"Le Roc Alto","address":{"thoroughfare":"Quartier La Ville","postalcode":"05350","locality":"SAINT-VERAN"}}
{"name":"Loiseau rive Gauche","address":{"thoroughfare":"5 rue de Bourgogne","postalcode":"75007","locality":"Paris 07"}}
{"name":"Il Carpaccio","address":{"thoroughfare":"37 avenue Hoche","postalcode":"75008","locality":"Paris 08"}}
{"name":"Jean-Claude Leclerc","address":{"thoroughfare":"12 rue St-Adjutor","postalcode":"63000","locality":"Clermont-Ferrand"}}
{"name":"La Chaumière","address":{"thoroughfare":"346 av. du Mar. -Juin","postalcode":"39100","locality":"Dole"}}
{"name":"Ar Men Du","address":{"thoroughfare":"47 rue des îles","postalcode":"29920","locality":"Névez"}}
{"name":"Le Pavillon des Boulevards","address":{"thoroughfare":"120 r. Croix-de-Seguey","postalcode":"33000","locality":"Bordeaux"}}
{"name":"Les Voiles d'Or","address":{"thoroughfare":"2 chemin de la Falaise","postalcode":"76200","locality":"Dieppe"}}
{"name":"Le Relais Bernard Loiseau","address":{"thoroughfare":"2, rue d'Argentine","postalcode":"21210","locality":"Saulieu"}}
{"name":"Le Pêché Gourmand","address":{"thoroughfare":"2 rte de Gap","postalcode":"05100","locality":"Briançon"}}
{"name":"Le Moulin des Quatre Saisons","address":{"thoroughfare":"r. Gallieni","postalcode":"72200","locality":"La Flèche"}}
{"name":"L'Atelier du Peintre","address":{"thoroughfare":"1 Rue Schongauer","postalcode":"68000","locality":"Colmar"}}
{"name":"L'Olivier","address":{"thoroughfare":"25 Route des Carles","postalcode":"83990","locality":"Saint-Tropez"}}
{"name":"Le Carrousel","address":{"thoroughfare":"14 rue du Pont de Morge","postalcode":"63350","locality":"MARINGUES"}}
{"name":"Mère Brazier","address":{"thoroughfare":"12 rue Royale","postalcode":"69001","locality":"LYON"}}
{"name":"La Promenade","address":{"thoroughfare":"11 rue du Savoureulx","postalcode":"37350","locality":"Le Petit-Pressigny"}}
{"name":"Le Bois sans Feuilles","address":{"thoroughfare":"728 Route de Villerest","postalcode":"42155","locality":"Ouches"}}
{"name":"L'Odas","address":{"thoroughfare":"Passage Maurice Lenfant","postalcode":"76000","locality":"Rouen"}}
{"name":"Rodolphe","address":{"thoroughfare":"35 r. Percière","postalcode":"76000","locality":"Rouen"}}
{"name":"Hostellerie Bérard","address":{"thoroughfare":"Avenue Gabriel-Péri","postalcode":"83740","locality":"LA-CADIERE-D'AZUR"}}
{"name":"La Bastide St-Antoine","address":{"thoroughfare":"48 av. Henri-Dunant","postalcode":"06130","locality":"Grasse"}}
{"name":"Garopapilles","address":{"thoroughfare":"62 r. Abbé-de-L'Epée","postalcode":"33000","locality":"Bordeaux"}}
{"name":"Le Vivarais","address":{"thoroughfare":"5 avenue Expilly","postalcode":"07600","locality":"VALS-LES-BAINS"}}
{"name":"Alléno Paris au Pavillon Ledoyen","address":{"thoroughfare":"8 avenue Dutuit","postalcode":"75008","locality":"Paris"}}
{"name":"Le Kléber","address":{"thoroughfare":"6 r. A. -Dumont","postalcode":"26400","locality":"Crest"}}
{"name":"Les Pyrénées","address":{"thoroughfare":"19 pl. Ch.-de-Gaulle","postalcode":"64220","locality":"Saint-Jean-Pied-de-Port"}}
{"name":"Laurent","address":{"thoroughfare":"41 av. Gabriel","postalcode":"75008","locality":"Paris"}}
{"name":"L'Océan","address":{"thoroughfare":"43 bd Thiers","postalcode":"64500","locality":"Saint-Jean-de-Luz"}}
{"name":"Le Moulin du Roc","address":{"thoroughfare":"Avenue Eugène Le Roy","postalcode":"24530","locality":"Champagnac-de-Belair"}}
{"name":"Atmosphères","address":{"thoroughfare":"618 Route des Tournelles","postalcode":"73370","locality":"Le Bourget-du-Lac"}}
{"name":"La Tour","address":{"thoroughfare":"31 Nouvelle-Place","postalcode":"18300","locality":"Sancerre"}}
{"name":"Hervé Busset","address":{"thoroughfare":"D901","postalcode":"12320","locality":"Conques"}}
{"name":"Le Kintessence","address":{"thoroughfare":"Rue des Clarines","postalcode":"73120","locality":"Courchevel 1850"}}
{"name":"Skab","address":{"thoroughfare":"7 Rue de la République","postalcode":"30000","locality":"nimes"}}
{"name":"Auberge La Pomme d'Api","address":{"thoroughfare":"49 r. Verderel","postalcode":"29250","locality":"Saint-Pol-de-Léon"}}
{"name":"La Lorraine","address":{"thoroughfare":"80 rue Principale","postalcode":"57330","locality":"Zoufftgen"}}
{"name":"Château de Sully","address":{"thoroughfare":"D6","postalcode":"14400","locality":"Sully"}}
{"name":"Le Clos des Sens","address":{"thoroughfare":"13 r. J. -Mermoz","postalcode":"74940","locality":"Annecy"}}
{"name":"Château Cordeillan-Bages","address":{"thoroughfare":"Route des châteaux","postalcode":"33250","locality":"Pauillac"}}
{"name":"Le Moulin de l'Abbaye","address":{"thoroughfare":"1 avenue Pierre de Bourdeilles","postalcode":"24310","locality":"BRANTOME"}}
{"name":"Le Chabichou","address":{"thoroughfare":"90 Route des Chenus","postalcode":"73120","locality":"Courchevel 1850"}}
{"name":"Les Fresques","address":{"thoroughfare":"D18","postalcode":"24240","locality":"Monestier"}}
{"name":"Auberge du Pont d'Acigné","address":{"thoroughfare":"D392","postalcode":"35530","locality":"Noyal-sur-Vilaine"}}
{"name":"Le Domaine du Colombier","address":{"thoroughfare":"270 Chemin de Malombre","postalcode":"26780","locality":"Malataverne"}}
{"name":"Le Prince Noir - Vivien Durand","address":{"thoroughfare":"1 rue du Prince Noir","postalcode":"33310","locality":"Lormont"}}
{"name":"La Maison des Bois - Marc Veyrat","address":{"thoroughfare":"Chemin Rural de Manigod au Col de la Croix Fry","postalcode":"74230","locality":"Manigod"}}
{"name":"Flaveurs","address":{"thoroughfare":"32 Grande-Rue","postalcode":"26000","locality":"Valence"}}
{"name":"La Table de la Bergerie","address":{"thoroughfare":"La Bergerie","postalcode":"49380","locality":"Champ-sur-Layon"}}
{"name":"La Table de Franck Putelat","address":{"thoroughfare":"80 chemin des Anglais","postalcode":"11000","locality":"Carcassonne"}}
{"name":"Le Village","address":{"thoroughfare":"3 Grande-Rue","postalcode":"78160","locality":"Marly-le-Roi"}}
{"name":"Pic","address":{"thoroughfare":"285 avenue Victor Hugo","postalcode":"26000","locality":"Valence"}}
{"name":"Likoké","address":{"thoroughfare":"7 rte de Païolive","postalcode":"07140","locality":"Les Vans"}}
{"name":"Le Cercle","address":{"thoroughfare":"44 bd Lahitolle","postalcode":"18000","locality":"Bourges"}}
{"name":"Michel Sarran","address":{"thoroughfare":"21 bd A.-Duportal","postalcode":"31000","locality":"Toulouse"}}
{"name":"L'Orée de la Forêt","address":{"thoroughfare":"255 r. de la Forêt","postalcode":"60600","locality":"Étouy"}}
{"name":"Aux Anges","address":{"thoroughfare":"6 Place Georges Clemenceau","postalcode":"42300","locality":"Roanne"}}
{"name":"Le Cap","address":{"thoroughfare":"71 Boulevard du Général-de-Gaulle","postalcode":"06230","locality":"SAINT-JEAN-CAP-FERRAT"}}
{"name":"Le Bistrot de Lagarde","address":{"thoroughfare":"rte d'Apt","postalcode":"84400","locality":"Lagarde-d'Apt"}}
{"name":"Qui plume la Lune","address":{"thoroughfare":"50 r. Amelot","postalcode":"75011","locality":"Paris 11"}}
{"name":"Maison Christian Étienne","address":{"thoroughfare":"10 Rue de Mons","postalcode":"84000","locality":"Avignon"}}
{"name":"La Grande Cascade","address":{"thoroughfare":"Bois de Boulogne, Carrefour de Longchamp","postalcode":"75016","locality":"Paris"}}
{"name":"Maximin Hellio","address":{"thoroughfare":"64 Rue Gambetta","postalcode":"14800","locality":"DEAUVILLE"}}
{"name":"SEPT","address":{"thoroughfare":"7 pl. St-Sernin","postalcode":"31000","locality":"Toulouse"}}
{"name":"Domaine de Rochevilaine","address":{"thoroughfare":"à la Pointe de Pen Lan","postalcode":"56190","locality":"Billiers"}}
{"name":"MaSa","address":{"thoroughfare":"112 avenue Victor-Hugo","postalcode":"92100","locality":"Boulogne-Billancourt"}}
{"name":"Auberge de l'Île Barbe","address":{"thoroughfare":"1 Place Notre-Dame","postalcode":"69009","locality":"Lyon 09"}}
{"name":"Bruno","address":{"thoroughfare":"2350 route des Arcs, Campagne Mariette","postalcode":"83510","locality":"Lorgues"}}
{"name":"Le Pousse-Pied","address":{"thoroughfare":"84 bd des Vendéens","postalcode":"85360","locality":"La Tranche-sur-Mer"}}
{"name":"La Gloire","address":{"thoroughfare":"74 av. du Gén.-de-Gaulle","postalcode":"45200","locality":"Montargis"}}
{"name":"Le Strasbourg","address":{"thoroughfare":"24 r. du Col. -Teyssier","postalcode":"57230","locality":"Bitche"}}
{"name":"L'Atelier de Joël Robuchon - Étoile","address":{"thoroughfare":"133 av. des Champs-Élysées","postalcode":"75008","locality":"Paris"}}
{"name":"Allium","address":{"thoroughfare":"88 bd de Créac'h-Gwen","postalcode":"29000","locality":"Quimper"}}
{"name":"Le Georges","address":{"thoroughfare":"22 pl. des Épars","postalcode":"28000","locality":"CHARTRES"}}
{"name":"Auberge de la Tour","address":{"thoroughfare":"Place de la Fontaine","postalcode":"15220","locality":"MARCOLES"}}
{"name":"Miraflores","address":{"thoroughfare":"60 r. Garibaldi","postalcode":"69006","locality":"Lyon"}}
{"name":"Lasserre","address":{"thoroughfare":"17 Avenue F. -D. -Roosevelt","postalcode":"75008","locality":"Paris 08"}}
{"name":"Assiette Champenoise","address":{"thoroughfare":"40 av. Paul Vaillant-Couturier","postalcode":"51430","locality":"Tinqueux"}}
{"name":"Restaurant des Rois","address":{"thoroughfare":"5 Boulevard du Maréchal Leclerc","postalcode":"06310","locality":"Beaulieu-sur-Mer"}}
{"name":"Kasbür","address":{"thoroughfare":"8 Rue de Dettwiller","postalcode":"67700","locality":"Monswiller"}}
{"name":"Relais de la Poste","address":{"thoroughfare":"24 avenue de Maremne","postalcode":"40140","locality":"Magescq"}}
{"name":"Le Saint-Estève","address":{"thoroughfare":"2250 route cézanne D17","postalcode":"13100","locality":"Le Tholonet"}}
{"name":"La Balette","address":{"thoroughfare":"rte de Port-Vendres","postalcode":"66190","locality":"Collioure"}}
{"name":"Pierre Gagnaire","address":{"thoroughfare":"6 Rue Balzac","postalcode":"75008","locality":"Paris 08"}}
{"name":"Le Hittau","address":{"thoroughfare":"1 rue du Nouaou","postalcode":"40230","locality":"SAINT-VINCENT-DE-TYROSSE"}}
{"name":"Transparence \"La Table de Patrick Fréchin\"","address":{"thoroughfare":"28 r. Stanislas","postalcode":"54000","locality":"Nancy"}}
{"name":"Le Bouche à Oreille","address":{"thoroughfare":"11 r. de la Chapelle","postalcode":"91150","locality":"Boutervilliers"}}
{"name":"La Bastide de Moustiers","address":{"thoroughfare":"Parc naturel régional du Verdon, Chemin de Quinson","postalcode":"04360","locality":"Moustiers-Sainte-Marie"}}
{"name":"La Robe","address":{"thoroughfare":"3 pl. Reveillère-Lepeaux","postalcode":"85600","locality":"Montaigu"}}
{"name":"Château de Mirambeau","address":{"thoroughfare":"1 Avenue des Comtes Duchatel","postalcode":"17150","locality":"Mirambeau"}}
{"name":"1920","address":{"thoroughfare":"373 chemin des follières","postalcode":"74120","locality":"Megève"}}
{"name":"Auberge des Saints Pères","address":{"thoroughfare":"212 av. de Nonneville","postalcode":"93600","locality":"Aulnay-sous-Bois"}}
{"name":"En Marge","address":{"thoroughfare":"1204 route de la Croix-Falgarde","postalcode":"31320","locality":"AUREVILLE"}}
{"name":"L'O des Vignes","address":{"thoroughfare":"r. du Bourg","postalcode":"71960","locality":"Fuissé"}}
{"name":"Le Haut-Allier","address":{"thoroughfare":"LE PONT D ALLEYRAS","postalcode":"43580","locality":"Alleyras"}}
{"name":"Le Pré Catelan","address":{"thoroughfare":"Route de Suresnes","postalcode":"75016","locality":"Paris"}}
{"name":"Azimut","address":{"thoroughfare":"273 r. de la Madelon","postalcode":"73120","locality":"Courchevel-Saint-Bon"}}
{"name":"Toya","address":{"thoroughfare":"av. Jean-Monnet","postalcode":"57380","locality":"Faulquemont"}}
{"name":"Girardin","address":{"thoroughfare":"19 Rue des Têtes","postalcode":"68000","locality":"Colmar"}}
{"name":"Ithurria","address":{"thoroughfare":"pl. du Fronton","postalcode":"64250","locality":"Ainhoa"}}
{"name":"Passage 53","address":{"thoroughfare":"53 passage des Panoramas","postalcode":"75002","locality":"Paris"}}
{"name":"Logis de la Cadène","address":{"thoroughfare":"Place du Marche au Bois","postalcode":"33330","locality":"Saint Emilion"}}
{"name":"Le Carmin","address":{"thoroughfare":"4B Place Carnot","postalcode":"21200","locality":"Beaune"}}
{"name":"L'Étang du Moulin","address":{"thoroughfare":"5 chemin de l'Etang du Moulin","postalcode":"25210","locality":"Bonnétage"}}
{"name":"Le Musigny","address":{"thoroughfare":"90 Avenue de Liege","postalcode":"59300","locality":"Valenciennes"}}
{"name":"Brikéténia","address":{"thoroughfare":"142 r. de l'Église","postalcode":"64210","locality":"Guéthary"}}
{"name":"Le Gabriel","address":{"thoroughfare":"42 Avenue Gabriel","postalcode":"75008","locality":"Paris"}}
{"name":"Maison Kieny","address":{"thoroughfare":"7 Rue du Général de Gaulle","postalcode":"68400","locality":"Riedisheim"}}
{"name":"Ô Saveurs","address":{"thoroughfare":"8 place Ormeaux au village","postalcode":"31180","locality":"ROUFFIAC-TOLOSAN"}}
{"name":"La Chassagnette","address":{"thoroughfare":"route du Sambuc","postalcode":"13200","locality":"ARLES"}}
{"name":"William Frachot","address":{"thoroughfare":"5 rue Michelet","postalcode":"21000","locality":"DIJON"}}
{"name":"Auberge de la Mine","address":{"thoroughfare":"le Gué-Plat","postalcode":"61450","locality":"La Ferrière-aux-Étangs"}}
{"name":"La Chèvre d'Or","address":{"thoroughfare":"r. du Barri","postalcode":"06360","locality":"Èze"}}
{"name":"Régis et Jacques Marcon","address":{"thoroughfare":"Larsiallas","postalcode":"43290","locality":"SAINT-BONNET-LE-FROID"}}
{"name":"Il Cortile","address":{"thoroughfare":"11 r. des Franciscains","postalcode":"68100","locality":"Mulhouse"}}
{"name":"Le Clair de la Plume","address":{"thoroughfare":"2 Place du Mail","postalcode":"26230","locality":"Grignan"}}
{"name":"L'Amaryllis","address":{"thoroughfare":"chemin de Martorey","postalcode":"71100","locality":"Saint-Rémy"}}
{"name":"Les Prés d'Eugénie - Michel Guérard","address":{"thoroughfare":"pl. de l'Impératrice","postalcode":"40320","locality":"Eugénie-les-Bains"}}
{"name":"Le George","address":{"thoroughfare":"31 Avenue George V","postalcode":"75008","locality":"Paris"}}
{"name":"AM par Alexandre Mazzia","address":{"thoroughfare":"9 rue François Rocca","postalcode":"13008","locality":"Marseille"}}
{"name":"Patrick Jeffroy","address":{"thoroughfare":"20 rue du Kelenn","postalcode":"29660","locality":"Carantec"}}
{"name":"Jin","address":{"thoroughfare":"6 Rue de la Sourdière","postalcode":"75001","locality":"Paris"}}
{"name":"Stéphane Carbone","address":{"thoroughfare":"14 r. de Courtonne","postalcode":"14000","locality":"Caen"}}
{"name":"La Table de Chaintré","address":{"thoroughfare":"72 pl. du Luminaire","postalcode":"71570","locality":"Chaintré"}}
{"name":"Dan B. - La Table de Ventabren","address":{"thoroughfare":"r. F. -Mistral","postalcode":"13122","locality":"Ventabren"}}
{"name":"Rackham","address":{"thoroughfare":"27 pl. Lacaze Duthiers rčs de l'église","postalcode":"29680","locality":"ROSCOFF"}}
{"name":"La Réserve Rimbaud","address":{"thoroughfare":"820 Avenue de Saint-Maur","postalcode":"34000","locality":"Montpellier"}}
{"name":"Restaurant du Château","address":{"thoroughfare":"15 avenue des Reynats","postalcode":"24650","locality":"Chancelade"}}
{"name":"La Table","address":{"thoroughfare":"32 Rue de la Barre","postalcode":"59000","locality":"Lille"}}
{"name":"Serge Vieira","address":{"thoroughfare":"Château du Couffour","postalcode":"15110","locality":"Chaudes-Aigues"}}
{"name":"Château d'Adoménil","address":{"thoroughfare":"","postalcode":"54300","locality":"Lunéville"}}
{"name":"Hostellerie Les Gorges de Pennafort","address":{"thoroughfare":"8660 RD 25","postalcode":"83830","locality":"Callas"}}
{"name":"Saturne","address":{"thoroughfare":"17 r. N.-D.-des-Victoires","postalcode":"75002","locality":"Paris"}}
{"name":"Le Saint-Martin","address":{"thoroughfare":"Avenue des Templiers","postalcode":"06140","locality":"Vence"}}
{"name":"Le 1947","address":{"thoroughfare":"Cheval Blanc Courchevel - Le Jardin Alpin","postalcode":"73120","locality":"Courchevel 1850"}}
{"name":"Le Jardin de Benjamin","address":{"thoroughfare":"Route de Salernes","postalcode":"83510","locality":"Lorgues"}}
{"name":"La Passagère","address":{"thoroughfare":"33 boulevard E. -Baudoin","postalcode":"06160","locality":"Juan-les-Pins"}}
{"name":"La Palme d'Or","address":{"thoroughfare":"73 Boulevard de la Croisette","postalcode":"06400","locality":"Cannes"}}
{"name":"Pèir","address":{"thoroughfare":"r. de la Combe","postalcode":"84220","locality":"Gordes"}}
{"name":"Stéphane Tournié - Les Jardins de l'Opéra","address":{"thoroughfare":"1 place du Capitole","postalcode":"31000","locality":"Toulouse"}}
{"name":"L'Oustau de Baumanière","address":{"thoroughfare":"Village des Baux-de-Provence","postalcode":"13520","locality":"Les Baux-de-Provence"}}
{"name":"Les Bas-Rupts","address":{"thoroughfare":"181 rte de la Bresse","postalcode":"88400","locality":"Bas-Rupts"}}
{"name":"Le Domaine de la Corniche","address":{"thoroughfare":"5 rte de la Corniche","postalcode":"78270","locality":"Rolleboise"}}
{"name":"Agapé","address":{"thoroughfare":"51 Rue Jouffroy-d'Abbans","postalcode":"75017","locality":"Paris 17"}}
{"name":"La Gouesnière","address":{"thoroughfare":"1 Le Limonay","postalcode":"35350","locality":"Saint-Méloir-des-Ondes"}}
{"name":"Le Corot","address":{"thoroughfare":"55 Rue de Versailles","postalcode":"92410","locality":"VILLE-D'AVRAY"}}
{"name":"Le Pré - Xavier Beaudiment","address":{"thoroughfare":"3 Route de la Baraque","postalcode":"63830","locality":"Durtol"}}
{"name":"La Galinette","address":{"thoroughfare":"23 r. Jean Payra","postalcode":"66000","locality":"Perpignan"}}
{"name":"Pertica","address":{"thoroughfare":"15 pl. de la République","postalcode":"41100","locality":"Vendôme"}}
{"name":"Hostellerie Jérôme","address":{"thoroughfare":"20 r. Comte de Cessole","postalcode":"06320","locality":"La Turbie"}}
{"name":"Jérôme Nutile - Le Mas de Boudan","address":{"thoroughfare":"351 Chemin du Mas de Boudan","postalcode":"30000","locality":"Nîmes"}}
{"name":"Aigue Marine","address":{"thoroughfare":"5 r. M. -Berthelot","postalcode":"22220","locality":"Tréguier"}}
{"name":"Hostellerie de Plaisance","address":{"thoroughfare":"5 place du Clocher","postalcode":"33330","locality":"Saint-Emilion"}}
{"name":"La Table d'Uzès","address":{"thoroughfare":"18 rue du Docteur Blanchard","postalcode":"30700","locality":"Uzès"}}
{"name":"Dominique Bucaille","address":{"thoroughfare":"715 av. des Savels","postalcode":"04100","locality":"Manosque"}}
{"name":"Hostellerie la Montagne","address":{"thoroughfare":"10 rue Pisseloup","postalcode":"52330","locality":"COLOMBEY-LES-DEUX-EGLISES"}}
{"name":"Loiseau des Ducs","address":{"thoroughfare":"3 Rue Vauban","postalcode":"21000","locality":"Dijon"}}
{"name":"Auberge de l'Ill","address":{"thoroughfare":"2 rue de Collonges-au-Mont d'Or","postalcode":"68970","locality":"Illhaeusern"}}
{"name":"Une Table au Sud","address":{"thoroughfare":"2 quai du Port","postalcode":"13002","locality":"Marseille"}}
{"name":"Auberge de Clochemerle","address":{"thoroughfare":"Rue Gabriel-Chevallier","postalcode":"69460","locality":"VAUX-EN-BEAUJOLAIS"}}
{"name":"Cayola","address":{"thoroughfare":"76 promenade de Cayola","postalcode":"85180","locality":"Talmont-Saint-Hilaire"}}
{"name":"Domaine des Séquoias","address":{"thoroughfare":"54 Vie-de-Boussieu","postalcode":"38300","locality":"Ruy"}}
{"name":"Frédéric Simonin","address":{"thoroughfare":"25 rue Bayen","postalcode":"75017","locality":"Paris"}}
{"name":"Le Marcq","address":{"thoroughfare":"944 av. de la République","postalcode":"59700","locality":"Marcq-en-Barœul"}}
{"name":"La Bonne Auberge","address":{"thoroughfare":"15 r. Nationale","postalcode":"57350","locality":"Stiring-Wendel"}}
{"name":"Le Pot d'Étain","address":{"thoroughfare":"4 av. de la République","postalcode":"90400","locality":"Danjoutin"}}
{"name":"Les Loges","address":{"thoroughfare":"6 r. du Boeuf","postalcode":"69005","locality":"Lyon 05"}}
{"name":"Meurin","address":{"thoroughfare":"Rue de Lillers","postalcode":"62350","locality":"Busnes"}}
{"name":"La Madeleine","address":{"thoroughfare":"1 Rue Alsace-Lorraine","postalcode":"89100","locality":"Sens"}}
{"name":"La Table des Blot - Auberge du Château","address":{"thoroughfare":"1 Grande-Rue","postalcode":"78720","locality":"Dampierre-en-Yvelines"}}
{"name":"Étincelles - La Gentilhommière","address":{"thoroughfare":"","postalcode":"24440","locality":"Sainte-Sabine"}}
{"name":"La Scène","address":{"thoroughfare":"33 Avenue George V","postalcode":"75008","locality":"Paris"}}
{"name":"La Mare aux Oiseaux","address":{"thoroughfare":"223 RUE DU CHEF DE L'ILE Fedrun","postalcode":"44720","locality":"Saint-Joachim"}}
{"name":"La Liégeoise","address":{"thoroughfare":"digue de mer","postalcode":"62930","locality":"Wimereux"}}
{"name":"Le Refuge des Gourmets","address":{"thoroughfare":"90 route des Framboises","postalcode":"74140","locality":"Machilly"}}
{"name":"Le Taillevent","address":{"thoroughfare":"15 Rue Lamennais","postalcode":"75008","locality":"Paris"}}
{"name":"Antoine","address":{"thoroughfare":"10 av. de New-York","postalcode":"75116","locality":"Paris 16"}}
{"name":"Alain Llorca","address":{"thoroughfare":"350 Route de Saint-Paul","postalcode":"06480","locality":"La Colle-sur-Loup"}}
{"name":"Le Violon d'Ingres","address":{"thoroughfare":"135 Rue Saint-Dominique","postalcode":"75007","locality":"Paris"}}
{"name":"La Cachette","address":{"thoroughfare":"Rue des Cévennes","postalcode":"26000","locality":"Valence"}}
{"name":"Les Terrasses d'Uriage","address":{"thoroughfare":"pl. Déesse-Hygie","postalcode":"38410","locality":"Uriage-les-Bains"}}
{"name":"Le Saison","address":{"thoroughfare":"1 imp. du Vieux-Bourg","postalcode":"35760","locality":"Saint-Grégoire"}}
{"name":"Le Manoir du Lys","address":{"thoroughfare":"D235","postalcode":"61140","locality":"Bagnoles-de-l'Orne"}}
{"name":"Mavrommatis","address":{"thoroughfare":"42 rue Daubenton","postalcode":"75005","locality":"Paris 05"}}
{"name":"Copenhague","address":{"thoroughfare":"142 AVENUE DES CHAMPS ELYSEES","postalcode":"75008","locality":"PARIS"}}
{"name":"L'Oasis","address":{"thoroughfare":"6 rue Jean-Honoré Carle","postalcode":"06210","locality":"La Napoule"}}
{"name":"Épicure","address":{"thoroughfare":"112 r. Fg St-Honoré","postalcode":"75008","locality":"Paris 08"}}
{"name":"Pur' - Jean-François Rouquette","address":{"thoroughfare":"5 r. de la Paix","postalcode":"75002","locality":"Paris 02"}}
{"name":"Le Belrose","address":{"thoroughfare":"Boulevard des Crêtes","postalcode":"83580","locality":"Gassin"}}
{"name":"Alliance","address":{"thoroughfare":"5 Rue de Poissy","postalcode":"75005","locality":"Paris"}}
{"name":"La Fourchette des Ducs","address":{"thoroughfare":"6 r. de la Gare","postalcode":"67210","locality":"Obernai"}}
{"name":"Ed.Em","address":{"thoroughfare":"4 imp. Chenevottes","postalcode":"21190","locality":"Chassagne-Montrachet"}}
{"name":"Auberge à la Bonne Idée","address":{"thoroughfare":"3 rue des Meuniers","postalcode":"60350","locality":"SAINT-JEAN-AUX-BOIS"}}
{"name":"La Nouvelle Auberge","address":{"thoroughfare":"9 route Nationale","postalcode":"68230","locality":"Wihr-au-Val"}}
{"name":"La Maison de Bournissac","address":{"thoroughfare":"montée d'Eyragues","postalcode":"13550","locality":"Les Paluds-des-Noves"}}
{"name":"114, Faubourg","address":{"thoroughfare":"114 r. Fg St-Honoré","postalcode":"75008","locality":"Paris 08"}}
{"name":"Auberge du Cheval Blanc","address":{"thoroughfare":"4 Route de Wissembourg","postalcode":"67510","locality":"Lembach"}}
{"name":"Le Beaulieu","address":{"thoroughfare":"34 Bis Place République","postalcode":"72000","locality":"Le Mans"}}
{"name":"Pierre Orsi","address":{"thoroughfare":"Place Kléber","postalcode":"69006","locality":"Lyon 06"}}
{"name":"Le Patio","address":{"thoroughfare":"10 bd de la Plage","postalcode":"33120","locality":"Arcachon"}}
{"name":"Le St-Martin","address":{"thoroughfare":"1 r. du Gén.-Leclerc","postalcode":"25200","locality":"Montbéliard"}}
{"name":"Gill","address":{"thoroughfare":"9 quai de la Bourse","postalcode":"76000","locality":"Rouen"}}
{"name":"Maison Prévôt","address":{"thoroughfare":"353 av. de Verdun","postalcode":"84300","locality":"Cavaillon"}}
{"name":"Guy Savoy","address":{"thoroughfare":"Monnaie de Paris11 Quai de Conti","postalcode":"75006","locality":"Paris"}}
{"name":"Le Mascaret","address":{"thoroughfare":"1 r. de Bas","postalcode":"50560","locality":"Blainville-sur-Mer"}}
{"name":"Guy Lassausaie","address":{"thoroughfare":"r. de Belle-Sise","postalcode":"69380","locality":"Chasselay"}}
{"name":"Au Vieux Couvent","address":{"thoroughfare":"6 r. des Chanoines","postalcode":"67860","locality":"Rhinau"}}
{"name":"Palégrié","address":{"thoroughfare":"Les Ritons","postalcode":"38250","locality":"Corrençon-en-Vercors"}}
{"name":"Maison Clovis","address":{"thoroughfare":"19 bd Brotteaux","postalcode":"69006","locality":"Lyon"}}
{"name":"La Chassagnette","address":{"thoroughfare":"route du Sambuc","postalcode":"13200","locality":"ARLES"}}
{"name":"Auberge au Boeuf","address":{"thoroughfare":"Rue de l'Eglise","postalcode":"67770","locality":"Sessenheim"}}
{"name":"La Côte Saint-Jacques","address":{"thoroughfare":"14 faubourg de Paris","postalcode":"89300","locality":"Joigny"}}
{"name":"Le Champ des Lunes","address":{"thoroughfare":"route de Roquefraîche","postalcode":"84360","locality":"Lauris"}}
{"name":"L'Épuisette","address":{"thoroughfare":"158 Vallon-des-Auffes","postalcode":"13007","locality":"Marseille"}}
{"name":"Benoit","address":{"thoroughfare":"20 Rue St-Martin","postalcode":"75004","locality":"Paris 04"}}
{"name":"La Rastègue","address":{"thoroughfare":"48 bd du Levant","postalcode":"83230","locality":"Bormes-les-Mimosas"}}
{"name":"Le Prieuré","address":{"thoroughfare":"7, place du Chapitre","postalcode":"30400","locality":"Villeneuve-lès-Avignon"}}
{"name":"Le France","address":{"thoroughfare":"8 place Cupillard","postalcode":"25130","locality":"VILLERS-LE-LAC"}}
{"name":"Le Clarence","address":{"thoroughfare":"31 Avenue Franklin Delano Roosevelt","postalcode":"75008","locality":"Paris 08"}}
{"name":"La Scène Thélème","address":{"thoroughfare":"18 Rue Troyon","postalcode":"75017","locality":"PARIS"}}
{"name":"U Santa Marina","address":{"thoroughfare":"Marina di Santa Giulia","postalcode":"20137","locality":"Porto-Vecchio"}}
{"name":"L'Orangerie","address":{"thoroughfare":"31 Avenue George-V","postalcode":"75008","locality":"Paris"}}
{"name":"Relais de la Poste","address":{"thoroughfare":"21 rue du Gén. -de-Gaulle","postalcode":"67610","locality":"LA-WANTZENAU"}}
{"name":"Cyril Attrazic","address":{"thoroughfare":"10 rte du Languedoc","postalcode":"48130","locality":"Aumont-Aubrac"}}
{"name":"Les Explorateurs","address":{"thoroughfare":"place du Slalom","postalcode":"73440","locality":"VAL THORENS"}}
{"name":"Le Petit Hôtel du Grand Large","address":{"thoroughfare":"11 quai St-Ivy","postalcode":"56510","locality":"Portivy"}}
{"name":"La Maison d'à Côté","address":{"thoroughfare":"17 rue de Chambord","postalcode":"41350","locality":"Montlivault"}}
{"name":"Pont de l'Ouysse","address":{"thoroughfare":"D23","postalcode":"46200","locality":"Lacave"}}
{"name":"Auguste","address":{"thoroughfare":"54 r. Bourgogne","postalcode":"75007","locality":"Paris 07"}}
{"name":"Ivan Vautier","address":{"thoroughfare":"3 avenue Henry-Chéron","postalcode":"14000","locality":"Caen"}}
{"name":"Stéphane Derbord","address":{"thoroughfare":"10 Place du Président Wilson","postalcode":"21000","locality":"Dijon"}}
{"name":"Paul Bocuse","address":{"thoroughfare":"40 Quai de la Plage","postalcode":"69660","locality":"Collonges-au-Mont-d'Or"}}
{"name":"Entre Vigne et Garrigue","address":{"thoroughfare":"600 route de Saint Bruno","postalcode":"30131","locality":"Pujaut"}}
{"name":"Ô Flaveurs","address":{"thoroughfare":"Château de Chilly","postalcode":"74140","locality":"Douvaine"}}
{"name":"La Rotonde","address":{"thoroughfare":"200 avenue du Casino","postalcode":"69890","locality":"LA-TOUR-DE-SALVAGNY"}}
{"name":"Restaurant de Lauzun","address":{"thoroughfare":"3 bd de l'Esplanade","postalcode":"34150","locality":"Gignac"}}
{"name":"Le Quinzième - Cyril Lignac","address":{"thoroughfare":"14 rue Cauchy","postalcode":"75015","locality":"Paris"}}
